NORAD_CAT_ID,OBJECT_NAME,OBJECT_TYPE,EPOCH,MEAN_MOTION,ECCENTRICITY,INCLINATION,RA_OF_ASC_NODE,ARG_OF_PERICENTER,MEAN_ANOMALY,BSTAR,MEAN_MOTION_DOT,MEAN_MOTION_DDOT,TLE_LINE0,TLE_LINE1,TLE_LINE2,SEMIMAJOR_AXIS,PERIOD,APOGEE,PERIGEE,DECAYED
56462.0,STARLINK-6045,PAYLOAD,2023-09-26 21:51:21,15.69934341,0.0002951,69.9989,213.3794,268.1602,91.9256,2.6234e-05,2.944e-05,0.0,0 STARLINK-6045,1 56462U 23064Q   23269.91066573  .00002944  00000-0  26234-4 0  9997,2 56462  69.9989 213.3794 0002951 268.1602  91.9256 15.69934341 21882,6737.222,91.724,361.075,357.099,0.0
56462.0,STARLINK-6045,PAYLOAD,2023-09-27 02:26:38,15.69911425,0.0003207,69.9988,212.8419,275.5684,84.5146,-5.4568e-07,-2.78e-06,0.0,0 STARLINK-6045,1 56462U 23064Q   23270.10183561 -.00000278  00000-0 -54568-6 0  9990,2 56462  69.9988 212.8419 0003207 275.5684  84.5146 15.69911425 22263,6737.287,91.725,361.313,356.992,0.0
56462.0,STARLINK-6045,PAYLOAD,2023-09-27 07:01:55,15.69894122,0.0002727,69.9993,212.3049,276.5118,83.5767,-1.9832e-05,-2.593e-05,0.0,0 STARLINK-6045,1 56462U 23064Q   23270.29300352 -.00002593  00000-0 -19832-4 0  9994,2 56462  69.9993 212.3049 0002727 276.5118  83.5767 15.69894122 22297,6737.337,91.726,361.039,357.365,0.0
56462.0,STARLINK-6045,PAYLOAD,2023-09-27 13:08:54,15.69912606,0.0004162,70.0004,211.5877,267.6529,92.419,-2.8099e-05,-3.589e-05,0.0,0 STARLINK-6045,1 56462U 23064Q   23270.54784764 -.00003589  00000-0 -28099-4 0  9996,2 56462  70.0004 211.5877 0004162 267.6529  92.4190 15.69912606 22337,6737.284,91.725,361.953,356.345,0.0
56462.0,STARLINK-6045,PAYLOAD,2023-09-27 23:51:09,15.69918081,0.0003914,69.9985,210.3304,277.4757,82.5994,2.1515e-05,2.374e-05,0.0,0 STARLINK-6045,1 56462U 23064Q   23270.99386544  .00002374  00000-0  21515-4 0  9994,2 56462  69.9985 210.3304 0003914 277.4757  82.5994 15.69918081 22403,6737.268,91.725,361.77,356.496,0.0
56462.0,STARLINK-6045,PAYLOAD,2023-09-28 05:58:10,15.69926407,0.0003686,69.9999,209.6172,273.7139,86.3635,4.1851e-05,4.823e-05,0.0,0 STARLINK-6045,1 56462U 23064Q   23271.24872810  .00004823  00000-0  41851-4 0  9995,2 56462  69.9999 209.6172 0003686 273.7139  86.3635 15.69926407 22440,6737.245,91.724,361.593,356.626,0.0
56462.0,STARLINK-6045,PAYLOAD,2023-09-28 21:15:41,15.6992815,0.0002716,70.0018,207.8267,252.5755,107.5144,-1.4851e-05,-1.998e-05,0.0,0 STARLINK-6045,1 56462U 23064Q   23271.88589568 -.00001998  00000-0 -14851-4 0  9992,2 56462  70.0018 207.8267 0002716 252.5755 107.5144 15.69928150 22192,6737.24,91.724,360.934,357.275,0.0
56462.0,STARLINK-6045,PAYLOAD,2023-09-29 06:26:12,15.69931236,0.000262,70.0002,206.7524,249.9436,110.1478,-1.6144e-06,-4.06e-06,0.0,0 STARLINK-6045,1 56462U 23064Q   23272.26819510 -.00000406  00000-0 -16144-5 0  9999,2 56462  70.0002 206.7524 0002620 249.9436 110.1478 15.69931236 22255,6737.231,91.724,360.861,357.331,0.0
56462.0,STARLINK-6045,PAYLOAD,2023-09-30 03:50:44,15.69907889,0.0002721,70.0021,204.2449,249.9798,110.1105,-2.5722e-05,-3.301e-05,0.0,0 STARLINK-6045,1 56462U 23064Q   23273.16023878 -.00003301  00000-0 -25722-4 0  9991,2 56462  70.0021 204.2449 0002721 249.9798 110.1105 15.69907889 22746,6737.298,91.725,360.996,357.329,0.0
56462.0,STARLINK-6045,PAYLOAD,2023-09-30 05:22:30,15.6990488,0.000244,70.0024,204.0642,258.9167,101.1754,-2.5057e-05,-3.221e-05,0.0,0 STARLINK-6045,1 56462U 23064Q   23273.22395938 -.00003221  00000-0 -25057-4 0  9999,2 56462  70.0024 204.0642 0002440 258.9167 101.1754 15.69904880 22401,6737.306,91.725,360.815,357.527,0.0
56462.0,STARLINK-6045,PAYLOAD,2023-09-30 13:01:14,15.69921154,0.0003059,70.0024,203.1695,263.467,96.6177,9.2342e-06,8.98e-06,0.0,0 STARLINK-6045,1 56462U 23064Q   23273.54253407  .00000898  00000-0  92342-5 0  9995,2 56462  70.0024 203.1695 0003059 263.4670  96.6177 15.69921154 22800,6737.26,91.724,361.186,357.064,0.0
56462.0,STARLINK-6045,PAYLOAD,2023-10-01 02:47:00,15.69930588,0.0002676,70.0023,201.5562,265.6009,94.4881,1.7313e-05,1.87e-05,0.0,0 STARLINK-6045,1 56462U 23064Q   23274.11597860  .00001870  00000-0  17313-4 0  9998,2 56462  70.0023 201.5562 0002676 265.6009  94.4881 15.69930588 22896,6737.233,91.724,360.9,357.295,0.0
56462.0,STARLINK-6045,PAYLOAD,2023-10-01 04:18:45,15.69926154,0.0002327,70.0026,201.3789,252.5202,107.5739,8.8661e-06,8.54e-06,0.0,0 STARLINK-6045,1 56462U 23064Q   23274.17969788  .00000854  00000-0  88661-5 0  9992,2 56462  70.0026 201.3789 0002327 252.5202 107.5739 15.69926154 22556,6737.245,91.724,360.678,357.543,0.0
56462.0,STARLINK-6045,PAYLOAD,2023-10-01 21:08:02,15.69924959,0.0002137,70.0035,199.409,234.5373,125.5624,-6.4171e-06,-9.83e-06,0.0,0 STARLINK-6045,1 56462U 23064Q   23274.88058216 -.00000983  00000-0 -64171-5 0  9990,2 56462  70.0035 199.4090 0002137 234.5373 125.5624 15.69924959 22662,6737.249,91.724,360.553,357.674,0.0
56462.0,STARLINK-6045,PAYLOAD,2023-10-02 01:43:17,15.6993342,0.0002833,70.002,198.8709,267.1722,92.9149,3.5785e-05,4.094e-05,0.0,0 STARLINK-6045,1 56462U 23064Q   23275.07173102  .00004094  00000-0  35785-4 0  9997,2 56462  70.0020 198.8709 0002833 267.1722  92.9149 15.69933420 23044,6737.224,91.724,360.998,357.181,0.0
56462.0,STARLINK-6045,PAYLOAD,2023-10-02 20:04:18,15.69930649,0.0003852,70.0004,196.7201,268.4509,91.6246,1.3406e-05,1.4e-05,0.0,0 STARLINK-6045,1 56462U 23064Q   23275.83632861  .00001400  00000-0  13406-4 0  9997,2 56462  70.0004 196.7201 0003852 268.4509  91.6246 15.69930649 23166,6737.232,91.724,361.693,356.502,0.0
56462.0,STARLINK-6045,PAYLOAD,2023-10-03 03:43:04,15.69926772,0.0003829,70.0001,195.8236,269.5542,90.5215,8.07e-06,7.58e-06,0.0,0 STARLINK-6045,1 56462U 23064Q   23276.15491423  .00000758  00000-0  80700-5 0  9997,2 56462  70.0001 195.8236 0003829 269.5542  90.5215 15.69926772 22866,6737.244,91.724,361.688,356.529,0.0
56462.0,STARLINK-6045,PAYLOAD,2023-10-03 20:32:21,15.69930622,0.000358,70.0001,193.8533,265.9483,94.1304,1.8222e-05,1.979e-05,0.0,0 STARLINK-6045,1 56462U 23064Q   23276.85579865  .00001979  00000-0  18222-4 0  9996,2 56462  70.0001 193.8533 0003580 265.9483  94.1304 15.69930622 23322,6737.232,91.724,361.509,356.686,0.0
56462.0,STARLINK-6045,PAYLOAD,2023-10-04 11:49:52,15.69925091,0.0002419,70.0016,192.0636,272.3121,87.7798,1.4672e-05,1.552e-05,0.0,0 STARLINK-6045,1 56462U 23064Q   23277.49297041  .00001552  00000-0  14672-4 0  9992,2 56462  70.0016 192.0636 0002419 272.3121  87.7798 15.69925091 23075,6737.248,91.724,360.743,357.484,0.0
56462.0,STARLINK-6045,PAYLOAD,2023-10-04 21:00:23,15.69919873,0.0002946,70.0025,190.9894,265.5931,94.4928,4.0607e-06,2.76e-06,0.0,0 STARLINK-6045,1 56462U 23064Q   23277.87527142  .00000276  00000-0  40607-5 0  9992,2 56462  70.0025 190.9894 0002946 265.5931  94.4928 15.69919873 23134,6737.263,91.724,361.113,357.143,0.0
56462.0,STARLINK-6045,PAYLOAD,2023-10-04 22:32:07,15.6993518,0.0002993,70.0009,190.8086,247.891,112.1968,3.7817e-05,4.339e-05,0.0,0 STARLINK-6045,1 56462U 23064Q   23277.93897982  .00004339  00000-0  37817-4 0  9993,2 56462  70.0009 190.8086 0002993 247.8910 112.1968 15.69935180 23490,6737.219,91.724,361.101,357.068,0.0
56462.0,STARLINK-6045,PAYLOAD,2023-10-05 04:39:09,15.69919514,0.0002636,70.0002,190.0904,271.6805,88.4089,3.5788e-06,2.18e-06,0.0,0 STARLINK-6045,1 56462U 23064Q   23278.19385618  .00000218  00000-0  35788-5 0  9998,2 56462  70.0002 190.0904 0002636 271.6805  88.4089 15.69919514 23533,6737.264,91.724,360.905,357.353,0.0
56462.0,STARLINK-6045,PAYLOAD,2023-10-05 21:28:25,15.69898807,0.0003128,70.0006,188.1216,261.7616,98.3225,-7.9964e-05,-9.806e-05,0.0,0 STARLINK-6045,1 56462U 23064Q   23278.89473917 -.00009806  00000-0 -79964-4 0  9992,2 56462  70.0006 188.1216 0003128 261.7616  98.3225 15.69898807 23294,6737.324,91.726,361.296,357.081,0.0
56462.0,STARLINK-6045,PAYLOAD,2023-10-06 02:03:41,15.69899765,0.000376,70.0003,187.5831,267.0255,93.051,-6.2119e-05,-7.668e-05,0.0,0 STARLINK-6045,1 56462U 23064Q   23279.08589150 -.00007668  00000-0 -62119-4 0  9999,2 56462  70.0003 187.5831 0003760 267.0255  93.0510 15.69899765 23672,6737.321,91.726,361.719,356.653,0.0
56462.0,STARLINK-6045,PAYLOAD,2023-10-06 03:35:26,15.69900936,0.0003607,70.0013,187.4058,259.6295,100.4494,-5.6728e-05,-7.022e-05,0.0,0 STARLINK-6045,1 56462U 23064Q   23279.14960832 -.00007022  00000-0 -56728-4 0  9999,2 56462  70.0013 187.4058 0003607 259.6295 100.4494 15.69900936 23334,6737.317,91.726,361.613,356.752,0.0
56462.0,STARLINK-6045,PAYLOAD,2023-10-06 18:52:57,15.69929567,0.0003726,70.0,185.6119,263.4916,96.5856,4.1045e-05,4.727e-05,0.0,0 STARLINK-6045,1 56462U 23064Q   23279.78677233  .00004727  00000-0  41045-4 0  9992,2 56462  70.0000 185.6119 0003726 263.4916  96.5856 15.69929567 23780,6737.236,91.724,361.611,356.59,0.0
56462.0,STARLINK-6045,PAYLOAD,2023-10-06 20:24:42,15.69932405,0.0003685,70.0002,185.433,266.2431,93.8344,4.9172e-05,5.706e-05,0.0,0 STARLINK-6045,1 56462U 23064Q   23279.85048894  .00005706  00000-0  49172-4 0  9992,2 56462  70.0002 185.4330 0003685 266.2431  93.8344 15.69932405 23442,6737.227,91.724,361.575,356.61,0.0
56462.0,STARLINK-6045,PAYLOAD,2023-10-07 02:31:42,15.69939293,0.0003503,69.9995,184.7155,256.8956,103.1849,9.6627e-05,0.00011429,0.0,0 STARLINK-6045,1 56462U 23064Q   23280.10535288  .00011429  00000-0  96627-4 0  9996,2 56462  69.9995 184.7155 0003503 256.8956 103.1849 15.69939293 23833,6737.208,91.723,361.433,356.713,0.0
56462.0,STARLINK-6045,PAYLOAD,2023-10-07 19:20:59,15.69929349,0.0002814,70.0004,182.7452,235.0441,125.0491,5.3802e-05,6.262e-05,0.0,0 STARLINK-6045,1 56462U 23064Q   23280.80623870  .00006262  00000-0  53802-4 0  9995,2 56462  70.0004 182.7452 0002814 235.0441 125.0491 15.69929349 23946,6737.236,91.724,360.997,357.205,0.0
56462.0,STARLINK-6045,PAYLOAD,2023-10-07 20:52:44,15.69921181,0.0003075,69.9999,182.5664,255.4443,104.6412,4.8689e-05,5.645e-05,0.0,0 STARLINK-6045,1 56462U 23064Q   23280.86995954  .00005645  00000-0  48689-4 0  9997,2 56462  69.9999 182.5664 0003075 255.4443 104.6412 15.69921181 23602,6737.259,91.724,361.196,357.053,0.0
